[{"OBJECT_NAME":"STARLINK-30290","OBJECT_ID":"2023-141U","EPOCH":"2026-03-09T21:42:48.111264","MEAN_MOTION":15.30188001,"ECCENTRICITY":0.00011985,"INCLINATION":53.1595,"RA_OF_ASC_NODE":282.9306,"ARG_OF_PERICENTER":98.1597,"MEAN_ANOMALY":261.9539,"EPHEMERIS_TYPE":0,"CLASSIFICATION_TYPE":"U","NORAD_CAT_ID":57858,"ELEMENT_SET_NO":999,"REV_AT_EPOCH":14036,"BSTAR":4.41569e-7,"MEAN_MOTION_DOT":-3.46e-6,"MEAN_MOTION_DDOT":0},{"OBJECT_NAME":"APEX R\/B","OBJECT_ID":"1994-046B","EPOCH":"2026-03-09T21:22:00.361344","MEAN_MOTION":14.28228355,"ECCENTRICITY":0.06427603,"INCLINATION":69.9225,"RA_OF_ASC_NODE":359.7806,"ARG_OF_PERICENTER":191.622,"MEAN_ANOMALY":166.9456,"EPHEMERIS_TYPE":0,"CLASSIFICATION_TYPE":"U","NORAD_CAT_ID":23198,"ELEMENT_SET_NO":999,"REV_AT_EPOCH":53288,"BSTAR":0.00062123339,"MEAN_MOTION_DOT":0.00017491,"MEAN_MOTION_DDOT":0}]
